{
  "type": "FeatureCollection",
  "features": [
    {
      "type": "Feature",
      "properties": {
        "norad_id": 30912,
        "name": "FENGYUN 1C DEB",
        "group": "fengyun-1c-debris",
        "lat": -7.653757989325473,
        "lon": -4.472283447816986,
        "alt_km": 583.1818587230673,
        "timestamp": "2025-12-02T19:35:50.835321+00:00",
        "meta_object_name": "FENGYUN 1C DEB",
        "meta_object_id": "1999-025AZA",
        "meta_epoch": "2025-12-02T12:18:39.158208",
        "meta_mean_motion": 14.8892526,
        "meta_eccentricity": 0.005924,
        "meta_inclination": 98.9969,
        "meta_ra_of_asc_node": 176.4031,
        "meta_arg_of_pericenter": 130.476,
        "meta_mean_anomaly": 230.1639,
        "meta_ephemeris_type": 0,
        "meta_classification_type": "U",
        "meta_norad_cat_id": 30912,
        "meta_element_set_no": 999,
        "meta_rev_at_epoch": 99252,
        "meta_bstar": 0.0018506,
        "meta_mean_motion_dot": 0.00017923,
        "meta_mean_motion_ddot": 0,
        "tle_line1": "1 30912U 99025AZA 25336.51295322  .00017923  00000+0  18506-2 0  9991",
        "tle_line2": "2 30912  98.9969 176.4031 0059240 130.4760 230.1639 14.88925260992526"
      },
      "geometry": {
        "type": "Point",
        "coordinates": [
          -4.472283447816986,
          -7.653757989325473
        ]
      }
    },
    {
      "type": "Feature",
      "properties": {
        "norad_id": 30913,
        "name": "FENGYUN 1C DEB",
        "group": "fengyun-1c-debris",
        "lat": 59.90428780829172,
        "lon": -160.47560575749245,
        "alt_km": 870.8806281939487,
        "timestamp": "2025-12-02T19:35:50.835331+00:00",
        "meta_object_name": "FENGYUN 1C DEB",
        "meta_object_id": "1999-025AZB",
        "meta_epoch": "2025-12-02T12:11:34.166112",
        "meta_mean_motion": 14.04918351,
        "meta_eccentricity": 0.004825,
        "meta_inclination": 98.7471,
        "meta_ra_of_asc_node": 3.822,
        "meta_arg_of_pericenter": 209.8669,
        "meta_mean_anomaly": 149.9744,
        "meta_ephemeris_type": 0,
        "meta_classification_type": "U",
        "meta_norad_cat_id": 30913,
        "meta_element_set_no": 999,
        "meta_rev_at_epoch": 95774,
        "meta_bstar": 0.00092379,
        "meta_mean_motion_dot": 1.458e-05,
        "meta_mean_motion_ddot": 0,
        "tle_line1": "1 30913U 99025AZB 25336.50803433  .00001458  00000+0  92379-3 0  9996",
        "tle_line2": "2 30913  98.7471   3.8220 0048250 209.8669 149.9744 14.04918351957744"
      },
      "geometry": {
        "type": "Point",
        "coordinates": [
          -160.47560575749245,
          59.90428780829172
        ]
      }
    },
    {
      "type": "Feature",
      "properties": {
        "norad_id": 30914,
        "name": "FENGYUN 1C DEB",
        "group": "fengyun-1c-debris",
        "lat": -4.797029029890968,
        "lon": 40.502291185931306,
        "alt_km": 1613.5398008557313,
        "timestamp": "2025-12-02T19:35:50.835342+00:00",
        "meta_object_name": "FENGYUN 1C DEB",
        "meta_object_id": "1999-025AZC",
        "meta_epoch": "2025-12-02T09:29:53.909376",
        "meta_mean_motion": 13.08754057,
        "meta_eccentricity": 0.0515125,
        "meta_inclination": 99.9823,
        "meta_ra_of_asc_node": 220.9551,
        "meta_arg_of_pericenter": 17.8304,
        "meta_mean_anomaly": 344.0164,
        "meta_ephemeris_type": 0,
        "meta_classification_type": "U",
        "meta_norad_cat_id": 30914,
        "meta_element_set_no": 999,
        "meta_rev_at_epoch": 58940,
        "meta_bstar": 0.0049741,
        "meta_mean_motion_dot": 3.217e-05,
        "meta_mean_motion_ddot": 0,
        "tle_line1": "1 30914U 99025AZC 25336.39576284  .00003217  00000+0  49741-2 0  9994",
        "tle_line2": "2 30914  99.9823 220.9551 0515125  17.8304 344.0164 13.08754057589403"
      },
      "geometry": {
        "type": "Point",
        "coordinates": [
          40.502291185931306,
          -4.797029029890968
        ]
      }
    },
    {
      "type": "Feature",
      "properties": {
        "norad_id": 30915,
        "name": "FENGYUN 1C DEB",
        "group": "fengyun-1c-debris",
        "lat": 72.64118432279072,
        "lon": 22.55845536622399,
        "alt_km": 821.2935535384568,
        "timestamp": "2025-12-02T19:35:50.835352+00:00",
        "meta_object_name": "FENGYUN 1C DEB",
        "meta_object_id": "1999-025AZD",
        "meta_epoch": "2025-12-02T04:04:32.751264",
        "meta_mean_motion": 14.24909084,
        "meta_eccentricity": 0.00537911,
        "meta_inclination": 98.9429,
        "meta_ra_of_asc_node": 52.1473,
        "meta_arg_of_pericenter": 197.5553,
        "meta_mean_anomaly": 162.3767,
        "meta_ephemeris_type": 0,
        "meta_classification_type": "U",
        "meta_norad_cat_id": 30915,
        "meta_element_set_no": 999,
        "meta_rev_at_epoch": 96362,
        "meta_bstar": 0.0018451139,
        "meta_mean_motion_dot": 4.333e-05,
        "meta_mean_motion_ddot": 0,
        "tle_line1": "1 30915U 99025AZD 25336.16982351  .00004333  00000+0  18451-2 0  9990",
        "tle_line2": "2 30915  98.9429  52.1473 0053791 197.5553 162.3767 14.24909084963622"
      },
      "geometry": {
        "type": "Point",
        "coordinates": [
          22.55845536622399,
          72.64118432279072
        ]
      }
    },
    {
      "type": "Feature",
      "properties": {
        "norad_id": 30916,
        "name": "FENGYUN 1C DEB",
        "group": "fengyun-1c-debris",
        "lat": -19.72835819011365,
        "lon": 40.434973552499294,
        "alt_km": 841.8979835827595,
        "timestamp": "2025-12-02T19:35:50.835362+00:00",
        "meta_object_name": "FENGYUN 1C DEB",
        "meta_object_id": "1999-025AZE",
        "meta_epoch": "2025-12-02T09:45:22.153824",
        "meta_mean_motion": 14.0872993,
        "meta_eccentricity": 0.00624,
        "meta_inclination": 99.004,
        "meta_ra_of_asc_node": 36.766,
        "meta_arg_of_pericenter": 287.4902,
        "meta_mean_anomaly": 133.6506,
        "meta_ephemeris_type": 0,
        "meta_classification_type": "U",
        "meta_norad_cat_id": 30916,
        "meta_element_set_no": 999,
        "meta_rev_at_epoch": 95698,
        "meta_bstar": 0.0015674,
        "meta_mean_motion_dot": 2.705e-05,
        "meta_mean_motion_ddot": 0,
        "tle_line1": "1 30916U 99025AZE 25336.40650641  .00002705  00000+0  15674-2 0  9997",
        "tle_line2": "2 30916  99.0040  36.7660 0062400 287.4902 133.6506 14.08729930956989"
      },
      "geometry": {
        "type": "Point",
        "coordinates": [
          40.434973552499294,
          -19.72835819011365
        ]
      }
    },
    {
      "type": "Feature",
      "properties": {
        "norad_id": 30918,
        "name": "FENGYUN 1C DEB",
        "group": "fengyun-1c-debris",
        "lat": 48.593981549563466,
        "lon": -80.47475886915232,
        "alt_km": 793.5617327913915,
        "timestamp": "2025-12-02T19:35:50.835372+00:00",
        "meta_object_name": "FENGYUN 1C DEB",
        "meta_object_id": "1999-025AZG",
        "meta_epoch": "2025-12-01T07:00:31.252896",
        "meta_mean_motion": 13.96745783,
        "meta_eccentricity": 0.01585842,
        "meta_inclination": 98.4159,
        "meta_ra_of_asc_node": 88.4644,
        "meta_arg_of_pericenter": 157.2538,
        "meta_mean_anomaly": 232.516,
        "meta_ephemeris_type": 0,
        "meta_classification_type": "U",
        "meta_norad_cat_id": 30918,
        "meta_element_set_no": 999,
        "meta_rev_at_epoch": 94893,
        "meta_bstar": 0.0013586348,
        "meta_mean_motion_dot": 2.06e-05,
        "meta_mean_motion_ddot": 0,
        "tle_line1": "1 30918U 99025AZG 25335.29202839  .00002060  00000+0  13586-2 0  9991",
        "tle_line2": "2 30918  98.4159  88.4644 0158584 157.2538 232.5160 13.96745783948930"
      },
      "geometry": {
        "type": "Point",
        "coordinates": [
          -80.47475886915232,
          48.593981549563466
        ]
      }
    },
    {
      "type": "Feature",
      "properties": {
        "norad_id": 30920,
        "name": "FENGYUN 1C DEB",
        "group": "fengyun-1c-debris",
        "lat": 49.7867352420327,
        "lon": 107.38276042389037,
        "alt_km": 813.0061784572408,
        "timestamp": "2025-12-02T19:35:50.835383+00:00",
        "meta_object_name": "FENGYUN 1C DEB",
        "meta_object_id": "1999-025AZJ",
        "meta_epoch": "2025-12-02T05:47:40.685568",
        "meta_mean_motion": 14.16344905,
        "meta_eccentricity": 0.0111833,
        "meta_inclination": 98.9192,
        "meta_ra_of_asc_node": 117.5111,
        "meta_arg_of_pericenter": 128.5233,
        "meta_mean_anomaly": 232.6031,
        "meta_ephemeris_type": 0,
        "meta_classification_type": "U",
        "meta_norad_cat_id": 30920,
        "meta_element_set_no": 999,
        "meta_rev_at_epoch": 94945,
        "meta_bstar": 0.0049956,
        "meta_mean_motion_dot": 0.0001051,
        "meta_mean_motion_ddot": 0,
        "tle_line1": "1 30920U 99025AZJ 25336.24144312  .00010510  00000+0  49956-2 0  9990",
        "tle_line2": "2 30920  98.9192 117.5111 0111833 128.5233 232.6031 14.16344905949457"
      },
      "geometry": {
        "type": "Point",
        "coordinates": [
          107.38276042389037,
          49.7867352420327
        ]
      }
    }
  ]
}